{
  "type": "FeatureCollection",
  "features": [
    {
      "type": "Feature",
      "properties": {
        "norad_id": 38709,
        "name": "EXACTVIEW-1 (ADS-1B)",
        "group": "resource",
        "lat": 33.83323554999661,
        "lon": -78.83641330802475,
        "alt_km": 813.3403700917952,
        "timestamp": "2025-12-12T16:50:32.804450+00:00",
        "meta_object_name": "EXACTVIEW-1 (ADS-1B)",
        "meta_object_id": "2012-039C",
        "meta_epoch": "2025-12-12T06:03:00.161280",
        "meta_mean_motion": 14.24907876,
        "meta_eccentricity": 0.00106983,
        "meta_inclination": 98.9635,
        "meta_ra_of_asc_node": 94.6318,
        "meta_arg_of_pericenter": 355.656,
        "meta_mean_anomaly": 4.4524,
        "meta_ephemeris_type": 0,
        "meta_classification_type": "U",
        "meta_norad_cat_id": 38709,
        "meta_element_set_no": 999,
        "meta_rev_at_epoch": 69608,
        "meta_bstar": 0.00013783643,
        "meta_mean_motion_dot": 2.76e-06,
        "meta_mean_motion_ddot": 0,
        "tle_line1": "1 38709U 12039C   25346.25208520  .00000276  00000+0  13784-3 0  9996",
        "tle_line2": "2 38709  98.9635  94.6318 0010698 355.6560   4.4524 14.24907876696080"
      },
      "geometry": {
        "type": "Point",
        "coordinates": [
          -78.83641330802475,
          33.83323554999661
        ]
      }
    },
    {
      "type": "Feature",
      "properties": {
        "norad_id": 38755,
        "name": "SPOT 6",
        "group": "resource",
        "lat": 10.491073751519082,
        "lon": -126.991614440183,
        "alt_km": 698.9872030776332,
        "timestamp": "2025-12-12T16:50:32.804460+00:00",
        "meta_object_name": "SPOT 6",
        "meta_object_id": "2012-047A",
        "meta_epoch": "2025-12-12T07:50:13.151040",
        "meta_mean_motion": 14.58603168,
        "meta_eccentricity": 0.0001091,
        "meta_inclination": 98.1567,
        "meta_ra_of_asc_node": 51.1182,
        "meta_arg_of_pericenter": 96.834,
        "meta_mean_anomaly": 263.2983,
        "meta_ephemeris_type": 0,
        "meta_classification_type": "U",
        "meta_norad_cat_id": 38755,
        "meta_element_set_no": 999,
        "meta_rev_at_epoch": 70581,
        "meta_bstar": 0.00018656168,
        "meta_mean_motion_dot": 8.23e-06,
        "meta_mean_motion_ddot": 0,
        "tle_line1": "1 38755U 12047A   25346.32654110  .00000823  00000+0  18656-3 0  9995",
        "tle_line2": "2 38755  98.1567  51.1182 0001091  96.8340 263.2983 14.58603168705811"
      },
      "geometry": {
        "type": "Point",
        "coordinates": [
          -126.991614440183,
          10.491073751519082
        ]
      }
    },
    {
      "type": "Feature",
      "properties": {
        "norad_id": 39019,
        "name": "PLEIADES 1B",
        "group": "resource",
        "lat": 66.40677840888934,
        "lon": 40.127387707660645,
        "alt_km": 690.5404116531927,
        "timestamp": "2025-12-12T16:50:32.804470+00:00",
        "meta_object_name": "PLEIADES 1B",
        "meta_object_id": "2012-068A",
        "meta_epoch": "2025-12-12T08:18:02.107008",
        "meta_mean_motion": 14.58552875,
        "meta_eccentricity": 0.00012013,
        "meta_inclination": 98.1788,
        "meta_ra_of_asc_node": 59.0032,
        "meta_arg_of_pericenter": 82.4773,
        "meta_mean_anomaly": 277.6563,
        "meta_ephemeris_type": 0,
        "meta_classification_type": "U",
        "meta_norad_cat_id": 39019,
        "meta_element_set_no": 999,
        "meta_rev_at_epoch": 69361,
        "meta_bstar": 0.00018989212,
        "meta_mean_motion_dot": 8.37e-06,
        "meta_mean_motion_ddot": 0,
        "tle_line1": "1 39019U 12068A   25346.34585772  .00000837  00000+0  18989-3 0  9995",
        "tle_line2": "2 39019  98.1788  59.0032 0001201  82.4773 277.6563 14.58552875693610"
      },
      "geometry": {
        "type": "Point",
        "coordinates": [
          40.127387707660645,
          66.40677840888934
        ]
      }
    },
    {
      "type": "Feature",
      "properties": {
        "norad_id": 39030,
        "name": "GOKTURK 2",
        "group": "resource",
        "lat": -76.7105362781131,
        "lon": -136.7516511945673,
        "alt_km": 652.2677699557098,
        "timestamp": "2025-12-12T16:50:32.804481+00:00",
        "meta_object_name": "GOKTURK 2",
        "meta_object_id": "2012-073A",
        "meta_epoch": "2025-12-12T07:26:02.342976",
        "meta_mean_motion": 14.75288953,
        "meta_eccentricity": 9.909e-05,
        "meta_inclination": 97.6895,
        "meta_ra_of_asc_node": 187.9844,
        "meta_arg_of_pericenter": 103.7087,
        "meta_mean_anomaly": 256.4233,
        "meta_ephemeris_type": 0,
        "meta_classification_type": "U",
        "meta_norad_cat_id": 39030,
        "meta_element_set_no": 999,
        "meta_rev_at_epoch": 69695,
        "meta_bstar": 0.00011420294,
        "meta_mean_motion_dot": 7.26e-06,
        "meta_mean_motion_ddot": 0,
        "tle_line1": "1 39030U 12073A   25346.30974934  .00000726  00000+0  11420-3 0  9992",
        "tle_line2": "2 39030  97.6895 187.9844 0000990 103.7087 256.4233 14.75288953696958"
      },
      "geometry": {
        "type": "Point",
        "coordinates": [
          -136.7516511945673,
          -76.7105362781131
        ]
      }
    },
    {
      "type": "Feature",
      "properties": {
        "norad_id": 39084,
        "name": "LANDSAT 8",
        "group": "resource",
        "lat": -57.209798168695286,
        "lon": -138.17049905107464,
        "alt_km": 710.2611080254865,
        "timestamp": "2025-12-12T16:50:32.804491+00:00",
        "meta_object_name": "LANDSAT 8",
        "meta_object_id": "2013-008A",
        "meta_epoch": "2025-12-12T05:51:53.218944",
        "meta_mean_motion": 14.57113354,
        "meta_eccentricity": 0.00010896,
        "meta_inclination": 98.2073,
        "meta_ra_of_asc_node": 54.3251,
        "meta_arg_of_pericenter": 88.4777,
        "meta_mean_anomaly": 271.6546,
        "meta_ephemeris_type": 0,
        "meta_classification_type": "U",
        "meta_norad_cat_id": 39084,
        "meta_element_set_no": 999,
        "meta_rev_at_epoch": 67067,
        "meta_bstar": 0.00015974499,
        "meta_mean_motion_dot": 6.75e-06,
        "meta_mean_motion_ddot": 0,
        "tle_line1": "1 39084U 13008A   25346.24436596  .00000675  00000+0  15974-3 0  9991",
        "tle_line2": "2 39084  98.2073  54.3251 0001089  88.4777 271.6546 14.57113354670675"
      },
      "geometry": {
        "type": "Point",
        "coordinates": [
          -138.17049905107464,
          -57.209798168695286
        ]
      }
    },
    {
      "type": "Feature",
      "properties": {
        "norad_id": 39086,
        "name": "SARAL",
        "group": "resource",
        "lat": -46.51272514095538,
        "lon": -18.4935647510822,
        "alt_km": 790.268876505379,
        "timestamp": "2025-12-12T16:50:32.804501+00:00",
        "meta_object_name": "SARAL",
        "meta_object_id": "2013-009A",
        "meta_epoch": "2025-12-12T05:43:46.567488",
        "meta_mean_motion": 14.32756787,
        "meta_eccentricity": 0.00028593,
        "meta_inclination": 98.5503,
        "meta_ra_of_asc_node": 170.1757,
        "meta_arg_of_pericenter": 109.6071,
        "meta_mean_anomaly": 250.5422,
        "meta_ephemeris_type": 0,
        "meta_classification_type": "U",
        "meta_norad_cat_id": 39086,
        "meta_element_set_no": 999,
        "meta_rev_at_epoch": 66883,
        "meta_bstar": 9.3934111e-05,
        "meta_mean_motion_dot": 2.12e-06,
        "meta_mean_motion_ddot": 0,
        "tle_line1": "1 39086U 13009A   25346.23873342  .00000212  00000+0  93934-4 0  9997",
        "tle_line2": "2 39086  98.5503 170.1757 0002859 109.6071 250.5422 14.32756787668835"
      },
      "geometry": {
        "type": "Point",
        "coordinates": [
          -18.4935647510822,
          -46.51272514095538
        ]
      }
    },
    {
      "type": "Feature",
      "properties": {
        "norad_id": 39150,
        "name": "GAOFEN-1",
        "group": "resource",
        "lat": -1.4737552808421843,
        "lon": 57.566933204966155,
        "alt_km": 653.8700755214522,
        "timestamp": "2025-12-12T16:50:32.804511+00:00",
        "meta_object_name": "GAOFEN-1",
        "meta_object_id": "2013-018A",
        "meta_epoch": "2025-12-12T07:05:26.461824",
        "meta_mean_motion": 14.76533677,
        "meta_eccentricity": 0.00182053,
        "meta_inclination": 97.9323,
        "meta_ra_of_asc_node": 56.9623,
        "meta_arg_of_pericenter": 144.3263,
        "meta_mean_anomaly": 215.9168,
        "meta_ephemeris_type": 0,
        "meta_classification_type": "U",
        "meta_norad_cat_id": 39150,
        "meta_element_set_no": 999,
        "meta_rev_at_epoch": 68066,
        "meta_bstar": 0.00024323407,
        "meta_mean_motion_dot": 1.649e-05,
        "meta_mean_motion_ddot": 0,
        "tle_line1": "1 39150U 13018A   25346.29544516  .00001649  00000+0  24323-3 0  9993",
        "tle_line2": "2 39150  97.9323  56.9623 0018205 144.3263 215.9168 14.76533677680660"
      },
      "geometry": {
        "type": "Point",
        "coordinates": [
          57.566933204966155,
          -1.4737552808421843
        ]
      }
    }
  ]
}